[
    {
        "Altitude(m)": 612513.9033658358,
        "Argument of Periapsis(deg)": 0.0,
        "Eccentricity": 0.0,
        "Inclination(deg)": 60.0,
        "Latitude(deg)": -28.13587187373292,
        "Longitude(deg)": 137.91308005959272,
        "Mean Anomaly(deg)": 212.7273,
        "RAAN(deg)": 40.0,
        "Satellite Name": "Test1 189",
        "Satellite Number": 189,
        "Semi-Major Axis(m)": 6980739.136638005,
        "Time(s)": 0
    },
    {
        "Altitude(m)": 612708.2711360409,
        "Argument of Periapsis(deg)": 0.00010418945913296404,
        "Eccentricity": 0.0,
        "Inclination(deg)": 60.0,
        "Latitude(deg)": -28.647611452839765,
        "Longitude(deg)": 138.27030937683946,
        "Mean Anomaly(deg)": 213.34740614546186,
        "RAAN(deg)": 39.99957995086026,
        "Satellite Name": "Test1 189",
        "Satellite Number": 189,
        "Semi-Major Axis(m)": 6980739.136638005,
        "Time(s)": 10
    }
]